GLOBALSTAR M035 [-]     
1 25851U 99037A   23314.61579332 -.00000122  00000+0 -22054-2 0  9999
2 25851  51.9952 278.5956 0013755 111.9158  59.9349 11.04527103 31662
GLOBALSTAR M032 [-]     
1 25852U 99037B   23314.97435640 -.00000018  00000+0  15631-2 0  9998
2 25852  51.9913 143.3046 0007039 262.5116  97.4884 11.19045570 69430
GLOBALSTAR M051 [-]     
1 25853U 99037C   23314.90485130 -.00000073  00000+0 -22921-4 0  9995
2 25853  51.9829  10.3841 0001449 240.3283 119.7384 11.42192661 65621
GLOBALSTAR M030 [-]     
1 25854U 99037D   23315.14346173 -.00000123  00000+0 -10083-2 0  9996
2 25854  51.9869 213.0467 0005434  73.7593 286.3822 11.55086206 82653
GLOBALSTAR M048 [-]     
1 25872U 99041A   23314.17760497 -.00000065  00000+0  13020-3 0  9991
2 25872  51.9370 284.5486 0012895 253.5505 120.0443 11.33841001 58625
GLOBALSTAR M026 [-]     
1 25873U 99041B   23314.57657979 -.00000122  00000+0 -21232-2 0  9994
2 25873  52.0037  42.8047 0001304  30.2561  73.1401 11.06828363 83751
GLOBALSTAR M043 [-]     
1 25874U 99041C   23314.91697284 -.00000062  00000+0  18534-3 0  9990
2 25874  51.9434   7.1523 0013320  36.9619 134.0607 11.25675569 57072
GLOBALSTAR M028 [-]     
1 25875U 99041D   23314.81826267 -.00000060  00000+0  26097-3 0  9996
2 25875  51.9602 135.4888 0062607 241.9969 117.4548 12.50544203117061
